GLOBALSTAR M094         
1 39074U 13005C   24202.94999221 -.00000109  00000+0 -27785-4 0  9991
2 39074  51.9957 110.6367 0000457  20.3022 339.7863 12.62286415530543
GLOBALSTAR M096         
1 39075U 13005D   24202.56730499 -.00000112  00000+0 -47131-4 0  9991
2 39075  52.0057 160.0571 0000186 295.3160  64.7687 12.62267699529415
GLOBALSTAR M078         
1 39076U 13005E   24202.85774062 -.00000076  00000+0  15580-3 0  9998
2 39076  51.9853 244.1368 0001231 156.5053 203.5870 12.62273343528078
GLOBALSTAR M095         
1 39077U 13005F   24202.80466321 -.00000063  00000+0  22615-3 0  9993
2 39077  51.9780 241.6575 0000814 187.7741 172.3112 12.62262590527923
GLOBALSTAR M087         
1 52888U 22064A   24202.95820195 -.00000072  00000+0  10720-3 0  9996
2 52888  51.9760  90.6231 0010049  88.8013 271.4039 13.37578916102047
